ORBCOMM FM37            
1 33064U 08031E   25343.14413683  .00002310  00000+0  32543-3 0  9990
2 33064  48.4379 231.4412 0004887  47.5404 109.1434 14.80583103939962
ORBCOMM FM40            
1 33065U 08031F   25343.04718213  .00002877  00000+0  37588-3 0  9999
2 33065  48.4391 212.8832 0005840  65.3446  87.9891 14.83078478940105
VESSELSAT 1             
1 37840U 11058C   25342.72855521  .00000447  00000+0  99022-4 0  9998
2 37840  19.9607 117.6996 0013595 307.1247  52.7915 14.11397596730995
ORBCOMM FM109           
1 40086U 14040A   25343.16531559  .00001265  00000+0  30586-3 0  9997
2 40086  47.0035 269.7081 0001282  41.0457 319.0525 14.58533070606605
ORBCOMM FM107           
1 40087U 14040B   25343.11628684  .00001205  00000+0  29262-3 0  9992
2 40087  47.0054 270.8305 0001474 335.1962  24.8852 14.58609068606672
ORBCOMM FM106           
1 40088U 14040C   25342.74271112  .00002660  00000+0  46911-3 0  9997
2 40088  47.0598  80.6118 0016413 161.5386 198.6104 14.70013269609157
ORBCOMM FM111           
1 40089U 14040D   25342.99370148  .00004345  00000+0  49169-3 0  9994
2 40089  47.0005 265.5324 0029281 309.9169  49.9155 14.87675264616247
ORBCOMM FM104           
1 40090U 14040E   25342.95496910  .00001303  00000+0  32419-3 0  9999
2 40090  47.0058 307.3168 0017115 283.9909  75.9073 14.56997689606100
